NORAD_CAT_ID,OBJECT_NAME,OBJECT_TYPE,EPOCH,MEAN_MOTION,ECCENTRICITY,INCLINATION,RA_OF_ASC_NODE,ARG_OF_PERICENTER,MEAN_ANOMALY,BSTAR,MEAN_MOTION_DOT,MEAN_MOTION_DDOT,TLE_LINE0,TLE_LINE1,TLE_LINE2,SEMIMAJOR_AXIS,PERIOD,APOGEE,PERIGEE,DECAYED
52868.0,STARLINK-4261,PAYLOAD,2022-08-06 12:55:56,15.72502019,0.0006184,53.2144,157.3429,16.032,344.0894,-0.00034837,-0.00047866,0.0,0 STARLINK-4261,1 52868U 22062AQ  22218.53884289 -.00047866  00000-0 -34837-3 0  9994,2 52868  53.2144 157.3429 0006184  16.0320 344.0894 15.72502019  8374,6729.886,91.574,355.913,347.589,0.0
52868.0,STARLINK-4261,PAYLOAD,2022-08-06 22:00:00,15.70749861,0.0002925,53.2175,155.489,8.372,329.6982,-0.0092788,-0.01055955,0.0,0 STARLINK-4261,1 52868U 22062AQ  22218.91667824 -.01055955  00000-0 -92788-2 0  9997,2 52868  53.2175 155.4890 0002925   8.3720 329.6982 15.70749861  8436,6734.89,91.676,358.725,354.785,0.0
52868.0,STARLINK-4261,PAYLOAD,2022-08-07 14:00:01,15.69231814,0.0001159999999999,53.2176,152.2108,16.9291,131.259,-0.0099029,-0.01056513,0.0,0 STARLINK-4261,1 52868U 22062AQ  22219.58334491 -.01056513  00000-0 -99029-2 0  9998,2 52868  53.2176 152.2108 0001160  16.9291 131.2590 15.69231814  1305,6739.232,91.765,361.879,360.316,0.0
52868.0,STARLINK-4261,PAYLOAD,2022-08-07 22:00:00,15.68468847,0.0001385,53.2178,150.5749,52.9975,178.8813,-0.0101549999999999,-0.01050371,0.0,0 STARLINK-4261,1 52868U 22062AQ  22219.91667824 -.01050371  00000-0 -10155-1 0  9992,2 52868  53.2178 150.5749 0001385  52.9975 178.8813 15.68468847  8597,6741.418000000002,91.809,364.216,362.349,0.0
52868.0,STARLINK-4261,PAYLOAD,2022-08-08 04:39:48,15.68505006,0.0001082999999999,53.2146,149.195,12.194,347.9104,-0.0045433999999999,-0.00494157,0.0,0 STARLINK-4261,1 52868U 22062AQ  22220.19430922 -.00494157  00000-0 -45434-2 0  9993,2 52868  53.2146 149.1950 0001083  12.1940 347.9104 15.68505006  8631,6741.314,91.807,363.909,362.449,0.0
52868.0,STARLINK-4261,PAYLOAD,2022-08-08 14:00:01,15.66949356,0.0001052,53.2175,147.3075,63.0584,333.5284,-0.010801,-0.01049453,0.0,0 STARLINK-4261,1 52868U 22062AQ  22220.58335648 -.01049453  00000-0 -10801-1 0  9990,2 52868  53.2175 147.3075 0001052  63.0584 333.5284 15.66949356  1301,6745.775,91.898,368.35,366.931,0.0
52868.0,STARLINK-4261,PAYLOAD,2022-08-08 22:00:00,15.66190633,0.0001230999999999,53.2176,145.6774,63.1758,54.2969,-0.011147,-0.01050101,0.0,0 STARLINK-4261,1 52868U 22062AQ  22220.91667824 -.01050101  00000-0 -11147-1 0  9997,2 52868  53.2176 145.6774 0001231  63.1758  54.2969 15.66190633  1305,6747.954000000002,91.943,370.649,368.98800000000006,0.0
52868.0,STARLINK-4261,PAYLOAD,2022-08-09 06:00:00,15.65426814,0.0001207,53.2173,144.0501,79.3501,118.1625,-0.011403,-0.01042374,0.0,0 STARLINK-4261,1 52868U 22062AQ  22221.25001157 -.01042374  00000-0 -11403-1 0  9994,2 52868  53.2173 144.0501 0001207  79.3501 118.1625 15.65426814  8792,6750.149,91.988,372.828,371.199,0.0
52868.0,STARLINK-4261,PAYLOAD,2022-08-09 14:00:01,15.64670637,0.0001117,53.2174,142.4211,71.2835,205.356,-0.0118269999999999,-0.01048074,0.0,0 STARLINK-4261,1 52868U 22062AQ  22221.58334491 -.01048074  00000-0 -11827-1 0  9993,2 52868  53.2174 142.4211 0001117  71.2835 205.3560 15.64670637  1304,6752.323,92.032,374.942,373.434,0.0
52868.0,STARLINK-4261,PAYLOAD,2022-08-09 22:00:00,15.63913214,0.00011,53.2176,140.7965,64.9543,289.8977,-0.012229,-0.01051047,0.0,0 STARLINK-4261,1 52868U 22062AQ  22221.91667824 -.01051047  00000-0 -12229-1 0  9990,2 52868  53.2176 140.7965 0001100  64.9543 289.8977 15.63913214  8902,6754.503000000002,92.077,377.111,375.625,0.0
52868.0,STARLINK-4261,PAYLOAD,2022-08-10 14:00:01,15.62390698,0.0001267,53.2175,137.55100000000002,61.5527,86.9911,-0.0129,-0.01060871,0.0,0 STARLINK-4261,1 52868U 22062AQ  22222.58334491 -.01060871  00000-0 -12900-1 0  9996,2 52868  53.2175 137.5510 0001267  61.5527  86.9911 15.62390698  1305,6758.891,92.166,381.612,379.899,0.0
52868.0,STARLINK-4261,PAYLOAD,2022-08-10 20:00:01,15.61822356,0.0001195,53.2178,136.3364,73.5277,41.708,-0.013217,-0.01062794,0.0,0 STARLINK-4261,1 52868U 22062AQ  22222.83334491 -.01062794  00000-0 -13217-1 0  9992,2 52868  53.2178 136.3364 0001195  73.5277  41.7080 15.61822356  9042,6760.53,92.2,383.203,381.587,0.0
52868.0,STARLINK-4261,PAYLOAD,2022-08-10 22:00:00,15.6163207,0.0001237,53.2177,135.9323,78.4659,145.553,-0.013305,-0.01062034,0.0,0 STARLINK-4261,1 52868U 22062AQ  22222.91667824 -.01062034  00000-0 -13305-1 0  9995,2 52868  53.2177 135.9323 0001237  78.4659 145.5530 15.61632070  1302,6761.079000000002,92.211,383.781,382.108,0.0
52868.0,STARLINK-4261,PAYLOAD,2022-08-11 14:00:01,15.60112146,0.000105,53.2173,132.6977,64.6038,307.6302,-0.0140949999999999,-0.01060747,0.0,0 STARLINK-4261,1 52868U 22062AQ  22223.58334491 -.01060747  00000-0 -14095-1 0  9996,2 52868  53.2173 132.6977 0001050  64.6038 307.6302 15.60112146  1302,6765.47,92.301,388.045,386.624,0.0
52868.0,STARLINK-4261,PAYLOAD,2022-08-11 22:00:00,15.59354446,0.0001234,53.2175,131.0846,60.3,24.6705,-0.0145449999999999,-0.01063033,0.0,0 STARLINK-4261,1 52868U 22062AQ  22223.91667824 -.01063033  00000-0 -14545-1 0  9993,2 52868  53.2175 131.0846 0001234  60.3000  24.6705 15.59354446  9218,6767.661,92.346,390.361,388.691,0.0
52868.0,STARLINK-4261,PAYLOAD,2022-08-12 14:00:01,15.57833633,0.0001235,53.2174,127.8608,70.0605,157.6493,-0.015354,-0.01059369,0.0,0 STARLINK-4261,1 52868U 22062AQ  22224.58334491 -.01059369  00000-0 -15354-1 0  9994,2 52868  53.2174 127.8608 0001235  70.0605 157.6493 15.57833633  1307,6772.065,92.436,394.766,393.094,0.0
52868.0,STARLINK-4261,PAYLOAD,2022-08-12 20:00:01,15.5726454,0.0001336,53.2177,126.6548,67.4546,122.905,-0.0157,-0.01060162,0.0,0 STARLINK-4261,1 52868U 22062AQ  22224.83335648 -.01060162  00000-0 -15700-1 0  9995,2 52868  53.2177 126.6548 0001336  67.4546 122.9050 15.57264540  9358,6773.715,92.47,396.485,394.675,0.0
52868.0,STARLINK-4261,PAYLOAD,2022-08-12 22:00:01,15.57075265,0.0001189,53.2176,126.2535,68.3582,229.4152,-0.015826,-0.01060957,0.0,0 STARLINK-4261,1 52868U 22062AQ  22224.91668981 -.01060957  00000-0 -15826-1 0  9994,2 52868  53.2176 126.2535 0001189  68.3582 229.4152 15.57075265  1302,6774.264,92.481,396.934,395.323,0.0
52868.0,STARLINK-4261,PAYLOAD,2022-08-13 14:00:01,15.55555492,0.0001267,53.2175,123.0405,52.4213,22.5507,-0.0167389999999999,-0.01060244,0.0,0 STARLINK-4261,1 52868U 22062AQ  22225.58334491 -.01060244  00000-0 -16739-1 0  9997,2 52868  53.2175 123.0405 0001267  52.4213  22.5507 15.55555492  1303,6778.675,92.571,401.399,399.682,0.0
52868.0,STARLINK-4261,PAYLOAD,2022-08-13 22:00:00,15.54795271,0.0001439,53.2177,121.4388,53.6886,88.5446,-0.017182,-0.01058301,0.0,0 STARLINK-4261,1 52868U 22062AQ  22225.91667824 -.01058301  00000-0 -17182-1 0  9997,2 52868  53.2177 121.4388 0001439  53.6886  88.5446 15.54795271  1301,6780.885,92.617,403.726,401.774,0.0
52868.0,STARLINK-4261,PAYLOAD,2022-08-14 14:00:01,15.53276181,0.0001208,53.2173,118.2366,67.2817,206.7384,-0.018161,-0.01057834,0.0,0 STARLINK-4261,1 52868U 22062AQ  22226.58334491 -.01057834  00000-0 -18161-1 0  9990,2 52868  53.2173 118.2366 0001208  67.2817 206.7384 15.53276181  1304,6785.305,92.707,407.99,406.351,0.0
52868.0,STARLINK-4261,PAYLOAD,2022-08-14 22:00:00,15.52518388,0.0001328,53.2174,116.6406,49.2798,289.2625,-0.018711,-0.01060009,0.0,0 STARLINK-4261,1 52868U 22062AQ  22226.91667824 -.01060009  00000-0 -18711-1 0  9995,2 52868  53.2174 116.6406 0001328  49.2798 289.2625 15.52518388  1304,6787.513000000001,92.753,410.279,408.477,0.0
52868.0,STARLINK-4261,PAYLOAD,2022-08-15 06:00:00,15.51759353,0.0001039,53.2172,115.0451,73.3364,328.8169,-0.019232,-0.01059897,0.0,0 STARLINK-4261,1 52868U 22062AQ  22227.25001157 -.01059897  00000-0 -19232-1 0  9996,2 52868  53.2172 115.0451 0001039  73.3364 328.8169 15.51759353  9737,6789.726,92.798,412.297,410.886,0.0
52868.0,STARLINK-4261,PAYLOAD,2022-08-15 14:00:01,15.50963462,0.0001095999999999,53.2173,113.4487,56.9231,47.9391,-0.018229,-0.0098327,0.0,0 STARLINK-4261,1 52868U 22062AQ  22227.58334491 -.00983270  00000-0 -18229-1 0  9997,2 52868  53.2173 113.4487 0001096  56.9231  47.9391 15.50963462  1300,6792.049,92.846,414.658,413.169,0.0
52868.0,STARLINK-4261,PAYLOAD,2022-08-15 22:00:00,15.50165364,0.0001293,53.2173,111.8567,48.0907,118.5567,-0.0069963,-0.00382534,0.0,0 STARLINK-4261,1 52868U 22062AQ  22227.91667824 -.00382534  00000-0 -69963-2 0  9991,2 52868  53.2173 111.8567 0001293  48.0907 118.5567 15.50165364  1307,6794.38,92.893,417.12300000000016,415.366,0.0
52868.0,STARLINK-4261,PAYLOAD,2022-08-16 06:00:02,15.49887345,0.0001157,53.2172,110.2636,77.1209,150.6698,-7.132300000000001e-05,-4.497e-05,0.0,0 STARLINK-4261,1 52868U 22062AQ  22228.25002315 -.00004497  00000-0 -71323-4 0  9991,2 52868  53.2172 110.2636 0001157  77.1209 150.6698 15.49887345  9895,6795.191999999999,92.91,417.844,416.271,0.0
52868.0,STARLINK-4261,PAYLOAD,2022-08-16 14:00:01,15.4984863,0.0001125999999999,53.2147,108.6598,66.3194,222.0483,0.0010152999999999,0.00057522,0.0,0 STARLINK-4261,1 52868U 22062AQ  22228.58334491  .00057522  00000-0  10153-2 0  9997,2 52868  53.2147 108.6598 0001126  66.3194 222.0483 15.49848630  1302,6795.305,92.912,417.936,416.405,0.0
52868.0,STARLINK-4261,PAYLOAD,2022-08-16 22:00:00,15.49886408,0.0001294,53.2146,107.0684,58.8649,290.3926,-0.0002221,-0.00013036,0.0,0 STARLINK-4261,1 52868U 22062AQ  22228.91667824 -.00013036  00000-0 -22210-3 0  9995,2 52868  53.2146 107.0684 0001294  58.8649 290.3926 15.49886408  1302,6795.195,92.91,417.939,416.181,0.0
52868.0,STARLINK-4261,PAYLOAD,2022-08-17 06:00:02,15.49894259,0.0001288,53.2151,105.4751,55.4506,354.7708,-0.00023912,-0.00014003,0.0,0 STARLINK-4261,1 52868U 22062AQ  22229.25002315 -.00014003  00000-0 -23912-3 0  9996,2 52868  53.2151 105.4751 0001288  55.4506 354.7708 15.49894259 10040,6795.172,92.91,417.912,416.162,0.0
